STARLINK-31410          
1 59179U 24045B   24218.11593338  .00001262  00000+0  37449-4 0  9997
2 59179  43.0008 158.9032 0001299 260.2603  99.8107 15.40711163 23969
STARLINK-31395          
1 59180U 24045C   24217.91025227  .00010699  00000+0  26284-3 0  9991
2 59180  42.9982 159.9411 0001039 250.3440 109.7304 15.40719683 23935
STARLINK-31486          
1 59181U 24045D   24218.53180877 -.00001964  00000+0 -39795-4 0  9993
2 59181  42.9969 156.8782 0001324 278.7310  81.3397 15.40680399 24024
STARLINK-31411          
1 59182U 24045E   24218.52507851 -.00002884  00000+0 -61794-4 0  9994
2 59182  42.9988 156.8194 0002151 276.7569  83.3042 15.40692613 24027
STARLINK-31347          
1 59183U 24045F   24218.54047924 -.00005898  00000+0 -13407-3 0  9992
2 59183  43.0003 155.1815 0001556 255.9475 104.1209 15.40693888 24069
STARLINK-31382          
1 59184U 24045G   24218.11145770  .00003342  00000+0  87194-4 0  9999
2 59184  43.0013 158.8747 0001334 276.1067  83.9638 15.40711751 23969
STARLINK-31394          
1 59185U 24045H   24217.19029546  .00005516  00000+0  13922-3 0  9991
2 59185  43.0002 163.1554 0000893 288.9528  71.1231 15.40698000 23830
STARLINK-31403          
1 59186U 24045J   24218.50116611  .00044423  00000+0  98308-3 0  9999
2 59186  42.9993 141.7396 0003441 260.9398  99.1070 15.43080003 24092
STARLINK-31514          
1 59187U 24045K   24218.50267163  .00001408  00000+0  40988-4 0  9997
2 59187  43.0042 156.6462 0002531 255.5049 104.5526 15.40699945 24029
STARLINK-31478          
1 59188U 24045L   24218.51597604  .00007082  00000+0  17665-3 0  9994
2 59188  43.0011 155.8768 0001888 270.4001  89.6639 15.40698519 24039
STARLINK-31498          
1 59189U 24045M   24218.08905161  .00002433  00000+0  65462-4 0  9992
2 59189  43.0000 158.6970 0001762 246.6099 113.4572 15.40713190 23963
STARLINK-31563          
1 59190U 24045N   24218.52060078 -.00019955  00000+0 -47240-3 0  9994
2 59190  42.9993 156.7869 0001069 241.5405 118.5344 15.40655642 24023
STARLINK-31551          
1 59191U 24045P   24218.52282475  .00007278  00000+0  18117-3 0  9996
2 59191  43.0006 156.7983 0001677 270.0368  90.0296 15.40724484 24029
STARLINK-31536          
1 59192U 24045Q   24218.33335648  .00110360  00000+0  26187-2 0  9999
2 59192  43.0004 156.9569 0001637 260.7051 152.8733 15.40612488 24002
STARLINK-31548          
1 59193U 24045R   24217.84765995  .00003563  00000+0  92474-4 0  9997
2 59193  43.0007 160.3292 0001583 274.2498  85.8177 15.40716224 23923
STARLINK-31542          
1 59194U 24045S   24218.52956218 -.00000770  00000+0 -11178-4 0  9995
2 59194  43.0021 156.8534 0001879 270.6917  89.3724 15.40690094 24028
STARLINK-31554          
1 59195U 24045T   24217.97059238  .00001969  00000+0  54345-4 0  9992
2 59195  43.0007 159.5333 0000852 264.7722  95.3037 15.40716348 23943
STARLINK-31558          
1 59196U 24045U   24218.52732293 -.00002541  00000+0 -53605-4 0  9991
2 59196  43.0009 156.8365 0001867 279.4042  80.6604 15.40686874 23998
STARLINK-31275          
1 59197U 24045V   24218.10921332  .00007645  00000+0  18998-3 0  9993
2 59197  43.0021 158.8532 0001762 259.9386 100.1272 15.40719706 23966
STARLINK-31590          
1 59198U 24045W   24218.54511101 -.00005512  00000+0 -12487-3 0  9991
2 59198  43.0001 156.1032 0001269 311.5726  48.5021 15.40680860 24030
STARLINK-31567          
1 59199U 24045X   24217.86558312  .00001606  00000+0  45692-4 0  9994
2 59199  43.0002 160.4654 0001297 264.0276  96.0432 15.40712327 23928
STARLINK-31503          
1 59200U 24045Y   24218.12039842  .00012651  00000+0  30907-3 0  9993
2 59200  43.0010 158.9371 0001357 272.0355  88.0346 15.40753735 23969
STARLINK-31603          
1 59201U 24046A   24218.53440087 -.00003527  00000+0 -78287-4 0  9995
2 59201  53.1617 340.3225 0001492 123.2026 236.9122 15.39601624 23763
STARLINK-31602          
1 59202U 24046B   24218.48793904  .00004510  00000+0  12254-3 0  9991
2 59202  53.1611 340.0270 0001287  91.0684 269.0469 15.39648976 23772
STARLINK-31577          
1 59203U 24046C   24218.33335648  .00114115  00000+0  28262-2 0  9991
2 59203  53.1597 341.0193 0001216 111.3154 340.8758 15.39556808 23750
STARLINK-31522          
1 59204U 24046D   24218.52544708  .00000061  00000+0  11500-4 0  9995
2 59204  53.1627 340.2695 0001236  80.0781 280.0363 15.39614128 23761
STARLINK-31586          
1 59205U 24046E   24217.63511311  .00002215  00000+0  65310-4 0  9992
2 59205  53.1615 343.9484 0001277  76.9054 283.2093 15.39635565 23658
STARLINK-31247          
1 59206U 24046F   24218.53465667 -.00000657  00000+0 -64514-5 0  9991
2 59206  53.1623 339.6072 0001016  37.8612 322.2464 15.39586349 23886
STARLINK-31591          
1 59207U 24046G   24218.53926935 -.00007253  00000+0 -17156-3 0  9999
2 59207  53.1604 339.6303 0001522 109.5768 250.5401 15.39608899 23782
STARLINK-31576          
1 59208U 24046H   24218.49258593  .00000953  00000+0  33775-4 0  9997
2 59208  53.1613 340.0571 0001161  96.0636 264.0502 15.39641064 23760
STARLINK-31601          
1 59209U 24046J   24218.50222145 -.00001951  00000+0 -38808-4 0  9997
2 59209  53.1610 340.1142 0000693  64.7491 295.3586 15.39619188 23821
STARLINK-31520          
1 59210U 24046K   24218.53894794 -.00003014  00000+0 -65400-4 0  9997
2 59210  53.1609 339.6327 0001209  56.1575 303.9545 15.39614429 23780
STARLINK-31496          
1 59211U 24046L   24218.52967188 -.00005747  00000+0 -13397-3 0  9997
2 59211  53.1607 339.5760 0001200 349.1782  10.9197 15.39582919 23781
STARLINK-31492          
1 59212U 24046M   24218.04737774  .00004540  00000+0  12333-3 0  9998
2 59212  53.1610 341.5400 0001193  60.3467 299.7656 15.39640193 23677
STARLINK-31517          
1 59213U 24046N   24218.54855911 -.00007066  00000+0 -16707-3 0  9995
2 59213  53.1616 339.7224 0001375  88.3167 271.7995 15.39578356 23774
STARLINK-31604          
1 59214U 24046P   24218.54823146 -.00009464  00000+0 -22706-3 0  9991
2 59214  53.1608 339.6898 0001175  92.0551 268.0589 15.39598752 23780
STARLINK-31434          
1 59215U 24046Q   24218.50685277 -.00000074  00000+0  81229-5 0  9993
2 59215  53.1615 340.1477 0001387 112.1954 247.9198 15.39641594 23870
STARLINK-31417          
1 59216U 24046R   24218.52079065  .00001777  00000+0  54390-4 0  9996
2 59216  53.1625 340.2302 0001843 108.9523 251.1682 15.39623904 23861
STARLINK-31499          
1 59217U 24046S   24218.49292276  .00014147  00000+0  36251-3 0  9994
2 59217  53.1604 340.0532 0001091  99.4489 260.6640 15.39661395 23801
STARLINK-31421          
1 59218U 24046T   24218.52999692 -.00001883  00000+0 -37124-4 0  9991
2 59218  53.1621 339.5831 0001066 107.9488 252.1633 15.39613389 23888
STARLINK-31518          
1 59219U 24046U   24218.48828099  .00000873  00000+0  31779-4 0  9995
2 59219  53.1614 340.0288 0001131  93.9556 266.1578 15.39639444 23778
STARLINK-31523          
1 59220U 24046V   24218.54357579 -.00000148  00000+0  62824-5 0  9996
2 59220  53.1616 339.6539 0001137  90.0320 270.0815 15.39635412 23777
STARLINK-31516          
1 59221U 24046W   24217.65369212  .00005969  00000+0  15901-3 0  9992
2 59221  53.1603 344.0610 0001135  69.2757 290.8370 15.39633482 23630
STARLINK-31490          
1 59222U 24046X   24217.73707365  .00004229  00000+0  11559-3 0  9990
2 59222  53.1617 343.1569 0001207 106.6672 253.4466 15.39633901 23874
STARLINK-31420          
1 59223U 24046Y   24218.52500475  .00001736  00000+0  53360-4 0  9999
2 59223  53.1611 339.5413 0002051 107.1387 252.9843 15.39632000 23819
STARLINK-31304          
1 59231U 24049A   24218.28428326  .00004624  00000+0  11781-3 0  9997
2 59231  42.9986 210.7426 0001330 269.5992  90.4712 15.40717413 23192
STARLINK-31305          
1 59232U 24049B   24218.24844716  .00000624  00000+0  22187-4 0  9998
2 59232  43.0016 210.4465 0001047 305.2201  54.8557 15.40698471 23198
STARLINK-31459          
1 59233U 24049C   24218.25292341  .00009255  00000+0  22842-3 0  9997
2 59233  42.9997 210.4813 0001295 274.4182  85.6526 15.40716107 23197
STARLINK-31438          
1 59234U 24049D   24218.14790803  .00001558  00000+0  44538-4 0  9997
2 59234  42.9974 211.4130 0001547 277.9467  82.1213 15.40704655 23178
STARLINK-31467          
1 59235U 24049E   24218.25516604 -.00001481  00000+0 -28199-4 0  9997
2 59235  43.0022 210.5001 0001561 271.9336  88.1342 15.40699408 23265
STARLINK-31444          
1 59236U 24049F   24217.70216064  .00005544  00000+0  13987-3 0  9994
2 59236  42.9995 210.5566 0001076 265.7533  94.3201 15.40703948 23156
STARLINK-31505          
1 59237U 24049G   24217.47274545  .00007540  00000+0  18757-3 0  9995
2 59237  42.9993 214.9543 0001167 278.8737  81.1988 15.40703706 23091
STARLINK-31494          
1 59238U 24049H   24218.39826259 -.00000159  00000+0  34745-5 0  9990
2 59238  43.0029 209.8537 0001736 273.7309  86.3349 15.40709459 23168
STARLINK-31303          
1 59239U 24049J   24218.10365102  .00074661  00000+0  17204-2 0  9991
2 59239  42.9975 210.1864 0000977 238.1580 121.9181 15.41676058 23188
STARLINK-31408          
1 59240U 24049K   24218.26622767  .00008615  00000+0  21322-3 0  9996
2 59240  43.0001 209.7150 0002541 280.5359  79.5212 15.40704324 23201
STARLINK-31427          
1 59241U 24049L   24218.10519982  .00007098  00000+0  17691-3 0  9992
2 59241  42.9989 210.1973 0001221 278.0432  82.0286 15.40720395 23242
STARLINK-31423          
1 59242U 24049M   24218.16344872  .00001176  00000+0  35401-4 0  9994
2 59242  43.0005 210.6575 0001565 269.2417  90.8260 15.40701797 23247
STARLINK-31433          
1 59243U 24049N   24218.25740283 -.00000043  00000+0  62266-5 0  9994
2 59243  43.0009 210.5139 0001381 281.4189  78.6512 15.40708751 23190
STARLINK-31285          
1 59244U 24049P   24217.68739185  .00003531  00000+0  91753-4 0  9996
2 59244  43.0000 213.9772 0001424 277.8919  82.1775 15.40700748 23111
